NORAD_CAT_ID,OBJECT_NAME,OBJECT_TYPE,EPOCH,MEAN_MOTION,ECCENTRICITY,INCLINATION,RA_OF_ASC_NODE,ARG_OF_PERICENTER,MEAN_ANOMALY,BSTAR,MEAN_MOTION_DOT,MEAN_MOTION_DDOT,TLE_LINE0,TLE_LINE1,TLE_LINE2,SEMIMAJOR_AXIS,PERIOD,APOGEE,PERIGEE,DECAYED
54184.0,STARLINK-5162,PAYLOAD,2023-02-12 23:28:34,15.08839776,0.0001474,53.2206,354.8046,91.1903,268.9258,-0.00014567,-2.606e-05,0.0,0 STARLINK-5162,1 54184U 22141AD  23043.97817431 -.00002606  00000-0 -14567-3 0  9996,2 54184  53.2206 354.8046 0001474  91.1903 268.9258 15.08839776 16901,6917.881,95.438,540.766,538.726,0.0
54184.0,STARLINK-5162,PAYLOAD,2023-02-13 05:50:05,15.08858455,8.47e-05,53.2191,353.6171,94.4402,265.6687,-3.243e-06,-3.39e-06,0.0,0 STARLINK-5162,1 54184U 22141AD  23044.24311525 -.00000339  00000-0 -32430-5 0  9992,2 54184  53.2191 353.6171 0000847  94.4402 265.6687 15.08858455 16942,6917.824,95.436,540.275,539.103,0.0
54184.0,STARLINK-5162,PAYLOAD,2023-02-13 13:47:02,15.08842166,0.0003027,53.2204,352.128,80.4599,279.6735,-0.00025188,-4.296e-05,0.0,0 STARLINK-5162,1 54184U 22141AD  23044.57433805 -.00004296  00000-0 -25188-3 0  9990,2 54184  53.2204 352.1280 0003027  80.4599 279.6735 15.08842166 16768,6917.874,95.437,541.833,537.645,0.0
54184.0,STARLINK-5162,PAYLOAD,2023-02-14 02:30:07,15.0882845,7.71e-05,53.2175,349.7487,75.8117,284.2961,2.2311e-05,6.7e-07,0.0,0 STARLINK-5162,1 54184U 22141AD  23045.10425675  .00000067  00000-0  22311-4 0  9992,2 54184  53.2175 349.7487 0000771  75.8117 284.2961 15.08828450 17071,6917.916,95.438,540.314,539.247,0.0
54184.0,STARLINK-5162,PAYLOAD,2023-02-14 05:40:53,15.08844265,0.0001483,53.2202,349.1537,84.752,275.3642,9.6662e-05,1.251e-05,0.0,0 STARLINK-5162,1 54184U 22141AD  23045.23672621  .00001251  00000-0  96662-4 0  9997,2 54184  53.2202 349.1537 0001483  84.7520 275.3642 15.08844265 17091,6917.867,95.437,540.758,538.706,0.0
54184.0,STARLINK-5162,PAYLOAD,2023-02-14 13:37:49,15.08835724,0.0001513,53.2199,347.6651,93.8291,266.2875,-3.7785e-05,-8.89e-06,0.0,0 STARLINK-5162,1 54184U 22141AD  23045.56793572 -.00000889  00000-0 -37785-4 0  9991,2 54184  53.2199 347.6651 0001513  93.8291 266.2875 15.08835724 16913,6917.893,95.438,540.805,538.712,0.0
54184.0,STARLINK-5162,PAYLOAD,2023-02-15 02:20:53,15.08851228,0.0001164,53.219,345.2894,83.0342,277.0783,6.1787e-05,6.96e-06,0.0,0 STARLINK-5162,1 54184U 22141AD  23046.09784497  .00000696  00000-0  61787-4 0  9999,2 54184  53.2190 345.2894 0001164  83.0342 277.0783 15.08851228 17227,6917.846,95.437,540.516,538.906,0.0
54184.0,STARLINK-5162,PAYLOAD,2023-02-16 02:11:39,15.08867409,0.0001371,53.2191,340.8275,83.7911,276.3237,0.000176,2.516e-05,0.0,0 STARLINK-5162,1 54184U 22141AD  23047.09143136  .00002516  00000-0  17600-3 0  9996,2 54184  53.2191 340.8275 0001371  83.7911 276.3237 15.08867409 17371,6917.797,95.436,540.61,538.713,0.0
54184.0,STARLINK-5162,PAYLOAD,2023-02-17 00:27:06,15.08829442,0.000114,53.2189,336.6655,93.3262,266.786,-5.3486e-05,-1.139e-05,0.0,0 STARLINK-5162,1 54184U 22141AD  23048.01882304 -.00001139  00000-0 -53486-4 0  9991,2 54184  53.2189 336.6655 0001140  93.3262 266.7860 15.08829442 17519,6917.913,95.438,540.566,538.989,0.0
54184.0,STARLINK-5162,PAYLOAD,2023-02-17 11:34:48,15.08831857,0.0001032,53.2186,334.5845,83.3867,276.7243,-0.00014018,-2.517e-05,0.0,0 STARLINK-5162,1 54184U 22141AD  23048.48250588 -.00002517  00000-0 -14018-3 0  9993,2 54184  53.2186 334.5845 0001032  83.3867 276.7243 15.08831857 17355,6917.905,95.438,540.484,539.056,0.0
54184.0,STARLINK-5162,PAYLOAD,2023-02-17 17:56:22,15.08830101,0.0001142,53.2178,333.3956,85.0438,275.0685,-0.00029747,-5.018e-05,0.0,0 STARLINK-5162,1 54184U 22141AD  23048.74747958 -.00005018  00000-0 -29747-3 0  9998,2 54184  53.2178 333.3956 0001142  85.0438 275.0685 15.08830101 17624,6917.911,95.438,540.566,538.986,0.0
54184.0,STARLINK-5162,PAYLOAD,2023-02-17 21:07:08,15.088149,0.000128,53.2179,332.8013,83.8252,276.2886,-7.7649e-05,-1.523e-05,0.0,0 STARLINK-5162,1 54184U 22141AD  23048.87995926 -.00001523  00000-0 -77649-4 0  9994,2 54184  53.2179 332.8013 0001280  83.8252 276.2886 15.08814900 17418,6917.957,95.439,540.708,538.937,0.0
54184.0,STARLINK-5162,PAYLOAD,2023-02-18 00:17:53,15.08840137,0.0001025,53.2183,332.205,104.6041,255.5064,-0.0002028,-3.514e-05,0.0,0 STARLINK-5162,1 54184U 22141AD  23049.01242707 -.00003514  00000-0 -20280-3 0  9993,2 54184  53.2183 332.2050 0001025 104.6041 255.5064 15.08840137 17669,6917.88,95.438,540.454,539.036,0.0
54184.0,STARLINK-5162,PAYLOAD,2023-02-18 11:25:35,15.08846574,0.0001334,53.2183,330.1259,58.8513,301.261,-0.00012359,-2.255e-05,0.0,0 STARLINK-5162,1 54184U 22141AD  23049.47610282 -.00002255  00000-0 -12359-3 0  9999,2 54184  53.2183 330.1259 0001334  58.8513 301.2610 15.08846574 17504,6917.86,95.437,540.648,538.802,0.0
54184.0,STARLINK-5162,PAYLOAD,2023-02-19 01:44:02,15.08859977,5.59e-05,53.2181,327.4487,83.825,276.2806,8.6407e-05,1.089e-05,0.0,0 STARLINK-5162,1 54184U 22141AD  23050.07225095  .00001089  00000-0  86407-4 0  9999,2 54184  53.2181 327.4487 0000559  83.8250 276.2806 15.08859977 17822,6917.819,95.436,540.071,539.298,0.0
54184.0,STARLINK-5162,PAYLOAD,2023-02-19 04:54:48,15.08841832,8.42e-05,53.2185,326.8533,131.405,228.7015,0.00038269,5.808e-05,0.0,0 STARLINK-5162,1 54184U 22141AD  23050.20473024  .00005808  00000-0  38269-3 0  9996,2 54184  53.2185 326.8533 0000842 131.4050 228.7015 15.08841832 17616,6917.875,95.437,540.322,539.157,0.0
54184.0,STARLINK-5162,PAYLOAD,2023-02-20 01:34:50,15.08842695,0.000122,53.2192,322.9891,65.7678,294.3442,0.00014256,1.982e-05,0.0,0 STARLINK-5162,1 54184U 22141AD  23051.06586129  .00001982  00000-0  14256-3 0  9991,2 54184  53.2192 322.9891 0001220  65.7678 294.3442 15.08842695 17974,6917.872,95.437,540.581,538.893,0.0
54184.0,STARLINK-5162,PAYLOAD,2023-02-20 11:07:09,15.08842918,0.0001057,53.2191,321.2041,76.1832,283.9278,2.44e-05,1.01e-06,0.0,0 STARLINK-5162,1 54184U 22141AD  23051.46330280  .00000101  00000-0  24400-4 0  9995,2 54184  53.2191 321.2041 0001057  76.1832 283.9278 15.08842918 17809,6917.871,95.437,540.468,539.005,0.0
54184.0,STARLINK-5162,PAYLOAD,2023-02-20 19:04:05,15.08835606,0.000124,53.2181,319.7167,77.3846,282.7285,-5.8595e-05,-1.22e-05,0.0,0 STARLINK-5162,1 54184U 22141AD  23051.79451055 -.00001220  00000-0 -58595-4 0  9992,2 54184  53.2181 319.7167 0001240  77.3846 282.7285 15.08835606 18083,6917.894,95.438,540.617,538.901,0.0
54184.0,STARLINK-5162,PAYLOAD,2023-02-21 01:25:37,15.08855325,9.94e-05,53.2188,318.5276,73.1952,286.915,-7.83e-05,-1.534e-05,0.0,0 STARLINK-5162,1 54184U 22141AD  23052.05945731 -.00001534  00000-0 -78300-4 0  9995,2 54184  53.2188 318.5276 0000994  73.1952 286.9150 15.08855325 18127,6917.834,95.437,540.386,539.011,0.0
54184.0,STARLINK-5162,PAYLOAD,2023-02-21 10:57:56,15.08847746,9.4e-05,53.2183,316.7428,82.7609,277.349,-5.7656e-05,-1.205e-05,0.0,0 STARLINK-5162,1 54184U 22141AD  23052.45689829 -.00001205  00000-0 -57656-4 0  9998,2 54184  53.2183 316.7428 0000940  82.7609 277.3490 15.08847746 17956,6917.857,95.437,540.372,539.071,0.0
54184.0,STARLINK-5162,PAYLOAD,2023-02-21 17:19:28,15.08842702,9.07e-05,53.2178,315.555,92.3154,267.7942,1.1707e-05,-1.01e-06,0.0,0 STARLINK-5162,1 54184U 22141AD  23052.72185740 -.00000101  00000-0  11707-4 0  9991,2 54184  53.2178 315.5550 0000907  92.3154 267.7942 15.08842702 18221,6917.872,95.437,540.365,539.11,0.0
54184.0,STARLINK-5162,PAYLOAD,2023-02-22 02:51:45,15.08865669,0.0001105,53.218,313.7708,89.8946,270.2172,5.9916e-05,6.66e-06,0.0,0 STARLINK-5162,1 54184U 22141AD  23053.11927923  .00000666  00000-0  59916-4 0  9991,2 54184  53.2180 313.7708 0001105  89.8946 270.2172 15.08865669 18287,6917.802,95.436,540.431,538.903,0.0
54184.0,STARLINK-5162,PAYLOAD,2023-02-22 04:27:08,15.08869002,0.000109,53.218,313.4738,88.2464,271.8653,8.8689e-05,1.125e-05,0.0,0 STARLINK-5162,1 54184U 22141AD  23053.18551519  .00001125  00000-0  88689-4 0  9992,2 54184  53.2180 313.4738 0001090  88.2464 271.8653 15.08869002 18060,6917.792,95.436,540.411,538.903,0.0
54184.0,STARLINK-5162,PAYLOAD,2023-02-22 21:56:26,15.08819611,0.000137,53.2178,310.2013,80.7864,279.3283,-5.5182e-05,-1.165e-05,0.0,0 STARLINK-5162,1 54184U 22141AD  23053.91419430 -.00001165  00000-0 -55182-4 0  9996,2 54184  53.2178 310.2013 0001370  80.7864 279.3283 15.08819611 18175,6917.943,95.439,540.755,538.86,0.0
54184.0,STARLINK-5162,PAYLOAD,2023-02-22 23:31:49,15.08819379,0.0001295,53.2175,309.9048,73.0748,287.0386,-5.4835e-05,-1.16e-05,0.0,0 STARLINK-5162,1 54184U 22141AD  23053.98043505 -.00001160  00000-0 -54835-4 0  9998,2 54184  53.2175 309.9048 0001295  73.0748 287.0386 15.08819379 18415,6917.943,95.439,540.704,538.913,0.0
54184.0,STARLINK-5162,PAYLOAD,2023-02-23 17:01:02,15.08845585,0.0001446,53.2171,306.6342,79.8181,280.2975,-5.3024e-07,-2.96e-06,0.0,0 STARLINK-5162,1 54184U 22141AD  23054.70905801 -.00000296  00000-0 -53024-6 0  9995,2 54184  53.2171 306.6342 0001446  79.8181 280.2975 15.08845585 18524,6917.863,95.437,540.729,538.728,0.0
54184.0,STARLINK-5162,PAYLOAD,2023-02-24 02:33:19,15.08867352,0.0001497,53.2183,304.8491,82.6299,277.4863,0.00010045,1.312e-05,0.0,0 STARLINK-5162,1 54184U 22141AD  23055.10647894  .00001312  00000-0  10045-3 0  9996,2 54184  53.2183 304.8491 0001497  82.6299 277.4863 15.08867352 18586,6917.797,95.436,540.697,538.626,0.0
54184.0,STARLINK-5162,PAYLOAD,2023-02-24 16:51:50,15.08820873,0.0001595,53.2179,302.174,90.5158,269.6017,8.6069e-05,1.081e-05,0.0,0 STARLINK-5162,1 54184U 22141AD  23055.70266998  .00001081  00000-0  86069-4 0  9997,2 54184  53.2179 302.1740 0001595  90.5158 269.6017 15.08820873 18671,6917.939,95.439,540.907,538.7,0.0
54184.0,STARLINK-5162,PAYLOAD,2023-02-24 20:02:36,15.08830462,0.0001641,53.2181,301.5807,90.5757,269.5423,5.891e-06,-1.94e-06,0.0,0 STARLINK-5162,1 54184U 22141AD  23055.83514887 -.00000194  00000-0  58910-5 0  9994,2 54184  53.2181 301.5807 0001641  90.5757 269.5423 15.08830462 18460,6917.91,95.438,540.91,538.639,0.0
